[{"OBJECT_NAME":"MONOLITH","OBJECT_ID":"2021-068A","EPOCH":"2026-03-09T13:05:30.210720","MEAN_MOTION":15.08010119,"ECCENTRICITY":0.00026796,"INCLINATION":37.022,"RA_OF_ASC_NODE":141.2957,"ARG_OF_PERICENTER":131.6464,"MEAN_ANOMALY":228.4511,"EPHEMERIS_TYPE":0,"CLASSIFICATION_TYPE":"U","NORAD_CAT_ID":49052,"ELEMENT_SET_NO":999,"REV_AT_EPOCH":25222,"BSTAR":0.00053655804,"MEAN_MOTION_DOT":8.348e-5,"MEAN_MOTION_DDOT":0},{"OBJECT_NAME":"STARLINK-5351","OBJECT_ID":"2023-065J","EPOCH":"2026-03-09T22:00:01.999584","MEAN_MOTION":15.06704104,"ECCENTRICITY":9.505e-5,"INCLINATION":43.001,"RA_OF_ASC_NODE":209.1507,"ARG_OF_PERICENTER":288.5874,"MEAN_ANOMALY":241.0448,"EPHEMERIS_TYPE":0,"CLASSIFICATION_TYPE":"U","NORAD_CAT_ID":56511,"ELEMENT_SET_NO":999,"REV_AT_EPOCH":572,"BSTAR":0.0045262887,"MEAN_MOTION_DOT":0.0006883,"MEAN_MOTION_DDOT":0}]
